{
  "norad_id": 66125,
  "name": "STARLINK-35649",
  "history": [
    {
      "epoch": "2026-03-28T21:10:59.464416",
      "apogee_km": 476.10553398494176,
      "perigee_km": 474.2940600027605,
      "latitude_deg": 18.89243913464925,
      "longitude_deg": 157.2327382399235,
      "semi_major_axis_km": 6853.336796993851,
      "eccentricity": 0.00013216,
      "inclination_deg": 53.1596,
      "raan_deg": 310.1467,
      "arg_perigee_deg": 100.1445,
      "mean_anomaly_deg": 259.9705,
      "mean_motion_rev_day": 15.30205115
    }
  ]
}